{
  "type": "FeatureCollection",
  "features": [
    {
      "type": "Feature",
      "properties": {
        "norad_id": 38755,
        "name": "SPOT 6",
        "group": "resource",
        "lat": 74.5291299106413,
        "lon": 34.40441573039444,
        "alt_km": 689.9013456299645,
        "timestamp": "2025-12-27T02:10:15.844947+00:00",
        "meta_object_name": "SPOT 6",
        "meta_object_id": "2012-047A",
        "meta_epoch": "2025-12-26T20:52:51.289248",
        "meta_mean_motion": 14.58544385,
        "meta_eccentricity": 0.0001221,
        "meta_inclination": 98.155,
        "meta_ra_of_asc_node": 65.3923,
        "meta_arg_of_pericenter": 76.5194,
        "meta_mean_anomaly": 283.6141,
        "meta_ephemeris_type": 0,
        "meta_classification_type": "U",
        "meta_norad_cat_id": 38755,
        "meta_element_set_no": 999,
        "meta_rev_at_epoch": 70793,
        "meta_bstar": 8.309e-05,
        "meta_mean_motion_dot": 3.41e-06,
        "meta_mean_motion_ddot": 0,
        "tle_line1": "1 38755U 12047A   25360.87003807  .00000341  00000+0  83090-4 0  9992",
        "tle_line2": "2 38755  98.1550  65.3923 0001221  76.5194 283.6141 14.58544385707932"
      },
      "geometry": {
        "type": "Point",
        "coordinates": [
          34.40441573039444,
          74.5291299106413
        ]
      }
    },
    {
      "type": "Feature",
      "properties": {
        "norad_id": 39019,
        "name": "PLEIADES 1B",
        "group": "resource",
        "lat": -24.45156448926776,
        "lon": 77.2631076590339,
        "alt_km": 703.6294429071249,
        "timestamp": "2025-12-27T02:10:15.844957+00:00",
        "meta_object_name": "PLEIADES 1B",
        "meta_object_id": "2012-068A",
        "meta_epoch": "2025-12-26T19:41:54.390624",
        "meta_mean_motion": 14.58565695,
        "meta_eccentricity": 0.0001143,
        "meta_inclination": 98.1773,
        "meta_ra_of_asc_node": 73.2489,
        "meta_arg_of_pericenter": 85.9136,
        "meta_mean_anomaly": 274.2194,
        "meta_ephemeris_type": 0,
        "meta_classification_type": "U",
        "meta_norad_cat_id": 39019,
        "meta_element_set_no": 999,
        "meta_rev_at_epoch": 69572,
        "meta_bstar": 0.00010736,
        "meta_mean_motion_dot": 4.54e-06,
        "meta_mean_motion_ddot": 0,
        "tle_line1": "1 39019U 12068A   25360.82076841  .00000454  00000+0  10736-3 0  9993",
        "tle_line2": "2 39019  98.1773  73.2489 0001143  85.9136 274.2194 14.58565695695725"
      },
      "geometry": {
        "type": "Point",
        "coordinates": [
          77.2631076590339,
          -24.45156448926776
        ]
      }
    },
    {
      "type": "Feature",
      "properties": {
        "norad_id": 39030,
        "name": "GOKTURK 2",
        "group": "resource",
        "lat": -26.000523760618886,
        "lon": -154.1839087570937,
        "alt_km": 650.5572896057283,
        "timestamp": "2025-12-27T02:10:15.844967+00:00",
        "meta_object_name": "GOKTURK 2",
        "meta_object_id": "2012-073A",
        "meta_epoch": "2025-12-26T19:46:43.543776",
        "meta_mean_motion": 14.75311595,
        "meta_eccentricity": 0.0001497,
        "meta_inclination": 97.6887,
        "meta_ra_of_asc_node": 201.7849,
        "meta_arg_of_pericenter": 106.2123,
        "meta_mean_anomaly": 253.9252,
        "meta_ephemeris_type": 0,
        "meta_classification_type": "U",
        "meta_norad_cat_id": 39030,
        "meta_element_set_no": 999,
        "meta_rev_at_epoch": 69909,
        "meta_bstar": 0.00015092,
        "meta_mean_motion_dot": 9.75e-06,
        "meta_mean_motion_ddot": 0,
        "tle_line1": "1 39030U 12073A   25360.82411509  .00000975  00000+0  15092-3 0  9994",
        "tle_line2": "2 39030  97.6887 201.7849 0001497 106.2123 253.9252 14.75311595699091"
      },
      "geometry": {
        "type": "Point",
        "coordinates": [
          -154.1839087570937,
          -26.000523760618886
        ]
      }
    },
    {
      "type": "Feature",
      "properties": {
        "norad_id": 39084,
        "name": "LANDSAT 8",
        "group": "resource",
        "lat": 69.22073767218794,
        "lon": 46.60043774884699,
        "alt_km": 695.080245526563,
        "timestamp": "2025-12-27T02:10:15.844977+00:00",
        "meta_object_name": "LANDSAT 8",
        "meta_object_id": "2013-008A",
        "meta_epoch": "2025-12-26T19:15:17.666784",
        "meta_mean_motion": 14.57116523,
        "meta_eccentricity": 0.0001054,
        "meta_inclination": 98.2054,
        "meta_ra_of_asc_node": 68.667,
        "meta_arg_of_pericenter": 94.0881,
        "meta_mean_anomaly": 266.0438,
        "meta_ephemeris_type": 0,
        "meta_classification_type": "U",
        "meta_norad_cat_id": 39084,
        "meta_element_set_no": 999,
        "meta_rev_at_epoch": 67279,
        "meta_bstar": 0.00010861,
        "meta_mean_motion_dot": 4.44e-06,
        "meta_mean_motion_ddot": 0,
        "tle_line1": "1 39084U 13008A   25360.80228781  .00000444  00000+0  10861-3 0  9998",
        "tle_line2": "2 39084  98.2054  68.6670 0001054  94.0881 266.0438 14.57116523672792"
      },
      "geometry": {
        "type": "Point",
        "coordinates": [
          46.60043774884699,
          69.22073767218794
        ]
      }
    },
    {
      "type": "Feature",
      "properties": {
        "norad_id": 39086,
        "name": "SARAL",
        "group": "resource",
        "lat": -59.46112888942599,
        "lon": -9.940882844269602,
        "alt_km": 791.594646122754,
        "timestamp": "2025-12-27T02:10:15.844987+00:00",
        "meta_object_name": "SARAL",
        "meta_object_id": "2013-009A",
        "meta_epoch": "2025-12-26T20:01:26.249376",
        "meta_mean_motion": 14.32761944,
        "meta_eccentricity": 0.0002953,
        "meta_inclination": 98.5504,
        "meta_ra_of_asc_node": 184.5808,
        "meta_arg_of_pericenter": 82.1629,
        "meta_mean_anomaly": 277.9891,
        "meta_ephemeris_type": 0,
        "meta_classification_type": "U",
        "meta_norad_cat_id": 39086,
        "meta_element_set_no": 999,
        "meta_rev_at_epoch": 67092,
        "meta_bstar": 7.0121e-05,
        "meta_mean_motion_dot": 1.47e-06,
        "meta_mean_motion_ddot": 0,
        "tle_line1": "1 39086U 13009A   25360.83433159  .00000147  00000+0  70121-4 0  9997",
        "tle_line2": "2 39086  98.5504 184.5808 0002953  82.1629 277.9891 14.32761944670928"
      },
      "geometry": {
        "type": "Point",
        "coordinates": [
          -9.940882844269602,
          -59.46112888942599
        ]
      }
    },
    {
      "type": "Feature",
      "properties": {
        "norad_id": 39150,
        "name": "GAOFEN-1",
        "group": "resource",
        "lat": 63.8897230826885,
        "lon": -91.98170700260141,
        "alt_km": 621.5932401945147,
        "timestamp": "2025-12-27T02:10:15.844997+00:00",
        "meta_object_name": "GAOFEN-1",
        "meta_object_id": "2013-018A",
        "meta_epoch": "2025-12-26T20:46:27.552288",
        "meta_mean_motion": 14.76503802,
        "meta_eccentricity": 0.0018558,
        "meta_inclination": 97.9305,
        "meta_ra_of_asc_node": 71.2735,
        "meta_arg_of_pericenter": 100.1992,
        "meta_mean_anomaly": 260.1312,
        "meta_ephemeris_type": 0,
        "meta_classification_type": "U",
        "meta_norad_cat_id": 39150,
        "meta_element_set_no": 999,
        "meta_rev_at_epoch": 68281,
        "meta_bstar": 0.00010117,
        "meta_mean_motion_dot": 6.56e-06,
        "meta_mean_motion_ddot": 0,
        "tle_line1": "1 39150U 13018A   25360.86559667  .00000656  00000+0  10117-3 0  9998",
        "tle_line2": "2 39150  97.9305  71.2735 0018558 100.1992 260.1312 14.76503802682813"
      },
      "geometry": {
        "type": "Point",
        "coordinates": [
          -91.98170700260141,
          63.8897230826885
        ]
      }
    },
    {
      "type": "Feature",
      "properties": {
        "norad_id": 39160,
        "name": "VNREDSAT 1",
        "group": "resource",
        "lat": -59.30117638227585,
        "lon": 69.44743348702197,
        "alt_km": 685.0349976114139,
        "timestamp": "2025-12-27T02:10:15.845007+00:00",
        "meta_object_name": "VNREDSAT 1",
        "meta_object_id": "2013-021B",
        "meta_epoch": "2025-12-26T21:31:40.325664",
        "meta_mean_motion": 14.64943024,
        "meta_eccentricity": 0.0001163,
        "meta_inclination": 97.935,
        "meta_ra_of_asc_node": 55.6741,
        "meta_arg_of_pericenter": 82.3322,
        "meta_mean_anomaly": 277.8014,
        "meta_ephemeris_type": 0,
        "meta_classification_type": "U",
        "meta_norad_cat_id": 39160,
        "meta_element_set_no": 999,
        "meta_rev_at_epoch": 67506,
        "meta_bstar": 0.00011978,
        "meta_mean_motion_dot": 5.95e-06,
        "meta_mean_motion_ddot": 0,
        "tle_line1": "1 39160U 13021B   25360.89699451  .00000595  00000+0  11978-3 0  9990",
        "tle_line2": "2 39160  97.9350  55.6741 0001163  82.3322 277.8014 14.64943024675063"
      },
      "geometry": {
        "type": "Point",
        "coordinates": [
          69.44743348702197,
          -59.30117638227585
        ]
      }
    }
  ]
}